{"type": "FeatureCollection", "features": [{"type": "Feature", "properties": {"norad_id": 22490, "name": "SCD 1", "group": "resource", "lat": 17.282764493540473, "lon": -30.41211467832992, "alt_km": 706.224821809431, "timestamp": "2025-12-26T20:30:45.590188+00:00", "meta": {"OBJECT_NAME": "SCD 1", "OBJECT_ID": "1993-009B", "EPOCH": "2025-12-26T15:05:04.547904", "MEAN_MOTION": 14.46008245, "ECCENTRICITY": 0.00421788, "INCLINATION": 24.9674, "RA_OF_ASC_NODE": 192.9471, "ARG_OF_PERICENTER": 111.7084, "MEAN_ANOMALY": 283.5703, "EPHEMERIS_TYPE": 0, "CLASSIFICATION_TYPE": "U", "NORAD_CAT_ID": 22490, "ELEMENT_SET_NO": 999, "REV_AT_EPOCH": 73611, "BSTAR": 9.5317896e-05, "MEAN_MOTION_DOT": 5.34e-06, "MEAN_MOTION_DDOT": 0}, "tle": {"line1": "1 22490U 93009B   25360.62852486  .00000534  00000+0  95318-4 0  9996", "line2": "2 22490  24.9674 192.9471 0042178 111.7084 283.5703 14.46008245736118"}}, "geometry": {"type": "Point", "coordinates": [-30.41211467832992, 17.282764493540473]}}, {"type": "Feature", "properties": {"norad_id": 25397, "name": "TECHSAT 1B (GO-32)", "group": "resource", "lat": 32.77392888766077, "lon": 170.2454008754939, "alt_km": 809.0011720032307, "timestamp": "2025-12-26T20:30:45.590218+00:00", "meta": {"OBJECT_NAME": "TECHSAT 1B (GO-32)", "OBJECT_ID": "1998-043D", "EPOCH": "2025-12-26T11:23:49.320960", "MEAN_MOTION": 14.24380794, "ECCENTRICITY": 0.00016195, "INCLINATION": 98.9934, "RA_OF_ASC_NODE": 344.0048, "ARG_OF_PERICENTER": 34.4402, "MEAN_ANOMALY": 325.6881, "EPHEMERIS_TYPE": 0, "CLASSIFICATION_TYPE": "U", "NORAD_CAT_ID": 25397, "ELEMENT_SET_NO": 999, "REV_AT_EPOCH": 42674, "BSTAR": 6.28068e-05, "MEAN_MOTION_DOT": 9.9e-07, "MEAN_MOTION_DDOT": 0}, "tle": {"line1": "1 25397U 98043D   25360.47487640  .00000099  00000+0  62807-4 0  9990", "line2": "2 25397  98.9934 344.0048 0001619  34.4402 325.6881 14.24380794426745"}}, "geometry": {"type": "Point", "coordinates": [170.2454008754939, 32.77392888766077]}}, {"type": "Feature", "properties": {"norad_id": 25504, "name": "SCD 2", "group": "resource", "lat": 16.508604097203847, "lon": -164.64007341092716, "alt_km": 726.3882962319276, "timestamp": "2025-12-26T20:30:45.590230+00:00", "meta": {"OBJECT_NAME": "SCD 2", "OBJECT_ID": "1998-060A", "EPOCH": "2025-12-26T13:56:13.358688", "MEAN_MOTION": 14.45430804, "ECCENTRICITY": 0.00170707, "INCLINATION": 24.9957, "RA_OF_ASC_NODE": 56.5516, "ARG_OF_PERICENTER": 99.0432, "MEAN_ANOMALY": 49.9342, "EPHEMERIS_TYPE": 0, "CLASSIFICATION_TYPE": "U", "NORAD_CAT_ID": 25504, "ELEMENT_SET_NO": 999, "REV_AT_EPOCH": 43532, "BSTAR": 8.1485778e-05, "MEAN_MOTION_DOT": 4.74e-06, "MEAN_MOTION_DDOT": 0}, "tle": {"line1": "1 25504U 98060A   25360.58071017  .00000474  00000+0  81486-4 0  9999", "line2": "2 25504  24.9957  56.5516 0017070  99.0432  49.9342 14.45430804435325"}}, "geometry": {"type": "Point", "coordinates": [-164.64007341092716, 16.508604097203847]}}, {"type": "Feature", "properties": {"norad_id": 25757, "name": "DLR-TUBSAT", "group": "resource", "lat": -15.492732805805257, "lon": -11.775831594186611, "alt_km": 732.4235851773874, "timestamp": "2025-12-26T20:30:45.590242+00:00", "meta": {"OBJECT_NAME": "DLR-TUBSAT", "OBJECT_ID": "1999-029B", "EPOCH": "2025-12-17T13:22:10.787520", "MEAN_MOTION": 14.52359578, "ECCENTRICITY": 0.00141996, "INCLINATION": 98.6566, "RA_OF_ASC_NODE": 336.2196, "ARG_OF_PERICENTER": 177.8976, "MEAN_ANOMALY": 182.2281, "EPHEMERIS_TYPE": 0, "CLASSIFICATION_TYPE": "U", "NORAD_CAT_ID": 25757, "ELEMENT_SET_NO": 999, "REV_AT_EPOCH": 40688, "BSTAR": 3.7650132e-05, "MEAN_MOTION_DOT": 1.05e-06, "MEAN_MOTION_DDOT": 0}, "tle": {"line1": "1 25757U 99029B   25351.55706930  .00000105  00000+0  37650-4 0  9996", "line2": "2 25757  98.6566 336.2196 0014199 177.8976 182.2281 14.52359578406886"}}, "geometry": {"type": "Point", "coordinates": [-11.775831594186611, -15.492732805805257]}}, {"type": "Feature", "properties": {"norad_id": 25994, "name": "TERRA", "group": "resource", "lat": 58.299056112493425, "lon": -114.86443285166189, "alt_km": 683.2080570659928, "timestamp": "2025-12-26T20:30:45.590252+00:00", "meta": {"OBJECT_NAME": "TERRA", "OBJECT_ID": "1999-068A", "EPOCH": "2025-12-26T15:48:24.065568", "MEAN_MOTION": 14.60917206, "ECCENTRICITY": 0.00033816, "INCLINATION": 97.973, "RA_OF_ASC_NODE": 51.831, "ARG_OF_PERICENTER": 66.6426, "MEAN_ANOMALY": 103.4112, "EPHEMERIS_TYPE": 0, "CLASSIFICATION_TYPE": "U", "NORAD_CAT_ID": 25994, "ELEMENT_SET_NO": 999, "REV_AT_EPOCH": 38441, "BSTAR": 0.00011291069, "MEAN_MOTION_DOT": 5.08e-06, "MEAN_MOTION_DDOT": 0}, "tle": {"line1": "1 25994U 99068A   25360.65861187  .00000508  00000+0  11291-3 0  9998", "line2": "2 25994  97.9730  51.8310 0003381  66.6426 103.4112 14.60917206384417"}}, "geometry": {"type": "Point", "coordinates": [-114.86443285166189, 58.299056112493425]}}, {"type": "Feature", "properties": {"norad_id": 27004, "name": "MAROC-TUBSAT", "group": "resource", "lat": -10.881705846568845, "lon": -12.355518043957426, "alt_km": 990.6658090723749, "timestamp": "2025-12-26T20:30:45.590263+00:00", "meta": {"OBJECT_NAME": "MAROC-TUBSAT", "OBJECT_ID": "2001-056D", "EPOCH": "2025-12-26T10:56:47.893632", "MEAN_MOTION": 13.70253538, "ECCENTRICITY": 0.00193118, "INCLINATION": 99.7917, "RA_OF_ASC_NODE": 169.1415, "ARG_OF_PERICENTER": 223.7924, "MEAN_ANOMALY": 162.0928, "EPHEMERIS_TYPE": 0, "CLASSIFICATION_TYPE": "U", "NORAD_CAT_ID": 27004, "ELEMENT_SET_NO": 999, "REV_AT_EPOCH": 20253, "BSTAR": 2.8395103e-05, "MEAN_MOTION_DOT": -2.2e-07, "MEAN_MOTION_DDOT": 0}, "tle": {"line1": "1 27004U 01056D   25360.45610988 -.00000022  00000+0  28395-4 0  9997", "line2": "2 27004  99.7917 169.1415 0019311 223.7924 162.0928 13.70253538202535"}}, "geometry": {"type": "Point", "coordinates": [-12.355518043957426, -10.881705846568845]}}, {"type": "Feature", "properties": {"norad_id": 27424, "name": "AQUA", "group": "resource", "lat": 41.18959014176728, "lon": -45.470160962208375, "alt_km": 683.4441113253297, "timestamp": "2025-12-26T20:30:45.590273+00:00", "meta": {"OBJECT_NAME": "AQUA", "OBJECT_ID": "2002-022A", "EPOCH": "2025-12-24T19:18:33.414624", "MEAN_MOTION": 14.61757572, "ECCENTRICITY": 0.00018094, "INCLINATION": 98.4055, "RA_OF_ASC_NODE": 319.881, "ARG_OF_PERICENTER": 102.1365, "MEAN_ANOMALY": 317.5475, "EPHEMERIS_TYPE": 0, "CLASSIFICATION_TYPE": "U", "NORAD_CAT_ID": 27424, "ELEMENT_SET_NO": 999, "REV_AT_EPOCH": 25779, "BSTAR": 0.00019560508, "MEAN_MOTION_DOT": 9.26e-06, "MEAN_MOTION_DDOT": 0}, "tle": {"line1": "1 27424U 02022A   25358.80455341  .00000926  00000+0  19561-3 0  9999", "line2": "2 27424  98.4055 319.8810 0001809 102.1365 317.5475 14.61757572257795"}}, "geometry": {"type": "Point", "coordinates": [-45.470160962208375, 41.18959014176728]}}, {"type": "Feature", "properties": {"norad_id": 28051, "name": "IRS-P6 (RESOURCESAT-1)", "group": "resource", "lat": 39.11687252183184, "lon": 33.85915723512776, "alt_km": 775.3391991374856, "timestamp": "2025-12-26T20:30:45.590282+00:00", "meta": {"OBJECT_NAME": "IRS-P6 (RESOURCESAT-1)", "OBJECT_ID": "2003-046A", "EPOCH": "2025-12-26T15:49:42.803616", "MEAN_MOTION": 14.36081613, "ECCENTRICITY": 0.0064956, "INCLINATION": 98.2158, "RA_OF_ASC_NODE": 40.42, "ARG_OF_PERICENTER": 139.1298, "MEAN_ANOMALY": 332.8651, "EPHEMERIS_TYPE": 0, "CLASSIFICATION_TYPE": "U", "NORAD_CAT_ID": 28051, "ELEMENT_SET_NO": 999, "REV_AT_EPOCH": 15576, "BSTAR": 0.0001463827, "MEAN_MOTION_DOT": 3.96e-06, "MEAN_MOTION_DDOT": 0}, "tle": {"line1": "1 28051U 03046A   25360.65952319  .00000396  00000+0  14638-3 0  9997", "line2": "2 28051  98.2158  40.4200 0064956 139.1298 332.8651 14.36081613155769"}}, "geometry": {"type": "Point", "coordinates": [33.85915723512776, 39.11687252183184]}}, {"type": "Feature", "properties": {"norad_id": 28220, "name": "SHIYAN-1 (SY-1)", "group": "resource", "lat": -81.00625178392272, "lon": 124.43262551366169, "alt_km": 484.10702616704475, "timestamp": "2025-12-26T20:30:45.590292+00:00", "meta": {"OBJECT_NAME": "SHIYAN-1 (SY-1)", "OBJECT_ID": "2004-012A", "EPOCH": "2025-12-26T14:36:08.115264", "MEAN_MOTION": 15.2850507, "ECCENTRICITY": 0.00051645, "INCLINATION": 97.8912, "RA_OF_ASC_NODE": 62.9665, "ARG_OF_PERICENTER": 266.678, "MEAN_ANOMALY": 93.3867, "EPHEMERIS_TYPE": 0, "CLASSIFICATION_TYPE": "U", "NORAD_CAT_ID": 28220, "ELEMENT_SET_NO": 999, "REV_AT_EPOCH": 18468, "BSTAR": 0.00053281556, "MEAN_MOTION_DOT": 0.00014717, "MEAN_MOTION_DDOT": 0}, "tle": {"line1": "1 28220U 04012A   25360.60842726  .00014717  00000+0  53282-3 0  9994", "line2": "2 28220  97.8912  62.9665 0005164 266.6780  93.3867 15.28505070184683"}}, "geometry": {"type": "Point", "coordinates": [124.43262551366169, -81.00625178392272]}}, {"type": "Feature", "properties": {"norad_id": 28376, "name": "AURA", "group": "resource", "lat": 49.0486729297405, "lon": 140.85723147614485, "alt_km": 684.7957813845142, "timestamp": "2025-12-26T20:30:45.590302+00:00", "meta": {"OBJECT_NAME": "AURA", "OBJECT_ID": "2004-026A", "EPOCH": "2025-12-26T14:59:16.331712", "MEAN_MOTION": 14.6097812, "ECCENTRICITY": 0.00014499, "INCLINATION": 98.3204, "RA_OF_ASC_NODE": 310.9172, "ARG_OF_PERICENTER": 90.3144, "MEAN_ANOMALY": 269.8222, "EPHEMERIS_TYPE": 0, "CLASSIFICATION_TYPE": "U", "NORAD_CAT_ID": 28376, "ELEMENT_SET_NO": 999, "REV_AT_EPOCH": 14101, "BSTAR": 0.00024784924, "MEAN_MOTION_DOT": 1.167e-05, "MEAN_MOTION_DDOT": 0}, "tle": {"line1": "1 28376U 04026A   25360.62449458  .00001167  00000+0  24785-3 0  9999", "line2": "2 28376  98.3204 310.9172 0001449  90.3144 269.8222 14.60978120141012"}}, "geometry": {"type": "Point", "coordinates": [140.85723147614485, 49.0486729297405]}}]}